start=new Date('2021-11-18T00:00:00.000Z').valueOf();
sats=[{"CENTER_NAME":"EARTH","MEAN_ANOMALY":"287.0685","REV_AT_EPOCH":"7176","MEAN_MOTION_DOT":"-0.00000460","EPOCH":"2021-11-17T14:02:03.495552","ECCENTRICITY":"0.00015570","TLE_LINE1":"1 46033U 20055G   21321.58476268 -.00000460  00000-0 -12002-4 0  9994","ELEMENT_SET_NO":"999","MEAN_ELEMENT_THEORY":"SGP4","ARG_OF_PERICENTER":"73.0475","MEAN_MOTION":"15.06400051","OBJECT_ID":"2020-055G","REF_FRAME":"TEME","EPHEMERIS_TYPE":"0","MEAN_MOTION_DDOT":"0.0000000000000","PERIAPSIS":"546.135","SITE":"AFETR","COUNTRY_CODE":"US","LAUNCH_DATE":"2020-08-07","PERIOD":"95.592","SEMIMAJOR_AXIS":"6925.348","APOAPSIS":"548.292","BSTAR":"-0.00001200200000","CLASSIFICATION_TYPE":"U","GP_ID":"189975033","INCLINATION":"53.0549","OBJECT_TYPE":"PAYLOAD","TIME_SYSTEM":"UTC","NORAD_CAT_ID":"46033","DECAY_DATE":null,"FILE":"3217982","OBJECT_NAME":"STARLINK-1556","RA_OF_ASC_NODE":"348.5635","RCS_SIZE":"LARGE","TLE_LINE2":"2 46033  53.0549 348.5635 0001557  73.0475 287.0685 15.06400051 71761"},{"OBJECT_ID":"2020-055H","REF_FRAME":"TEME","EPHEMERIS_TYPE":"0","MEAN_MOTION_DDOT":"0.0000000000000","PERIAPSIS":"546.269","SITE":"AFETR","COUNTRY_CODE":"US","PERIOD":"95.592","LAUNCH_DATE":"2020-08-07","SEMIMAJOR_AXIS":"6925.349","CENTER_NAME":"EARTH","MEAN_ANOMALY":"286.8224","MEAN_MOTION_DOT":"-0.00000137","REV_AT_EPOCH":"7176","EPOCH":"2021-11-17T14:07:21.816480","ECCENTRICITY":"0.00013640","ELEMENT_SET_NO":"999","TLE_LINE1":"1 46034U 20055H   21321.58844695 -.00000137  00000-0  96658-5 0  9998","MEAN_ELEMENT_THEORY":"SGP4","ARG_OF_PERICENTER":"73.2915","MEAN_MOTION":"15.06399852","TIME_SYSTEM":"UTC","NORAD_CAT_ID":"46034","DECAY_DATE":null,"FILE":"3217982","RA_OF_ASC_NODE":"348.5558","OBJECT_NAME":"STARLINK-1557","RCS_SIZE":"LARGE","TLE_LINE2":"2 46034  53.0558 348.5558 0001364  73.2915 286.8224 15.06399852 71765","APOAPSIS":"548.159","BSTAR":"0.00000966580000","CLASSIFICATION_TYPE":"U","INCLINATION":"53.0558","GP_ID":"189975286","OBJECT_TYPE":"PAYLOAD"},{"EPHEMERIS_TYPE":"0","MEAN_MOTION_DDOT":"0.0000000000000","PERIAPSIS":"546.112","OBJECT_ID":"2020-055J","REF_FRAME":"TEME","COUNTRY_CODE":"US","SITE":"AFETR","LAUNCH_DATE":"2020-08-07","PERIOD":"95.592","SEMIMAJOR_AXIS":"6925.362","MEAN_MOTION_DOT":"0.00000346","REV_AT_EPOCH":"7179","EPOCH":"2021-11-17T14:17:58.840224","CENTER_NAME":"EARTH","MEAN_ANOMALY":"302.0065","ARG_OF_PERICENTER":"58.1081","MEAN_MOTION":"15.06395761","ECCENTRICITY":"0.00016090","TLE_LINE1":"1 46035U 20055J   21321.59581991  .00000346  00000-0  42158-4 0  9993","ELEMENT_SET_NO":"999","MEAN_ELEMENT_THEORY":"SGP4","DECAY_DATE":null,"TIME_SYSTEM":"UTC","NORAD_CAT_ID":"46035","OBJECT_NAME":"STARLINK-1558","RA_OF_ASC_NODE":"348.5132","RCS_SIZE":"LARGE","TLE_LINE2":"2 46035  53.0546 348.5132 0001609  58.1081 302.0065 15.06395761 71791","FILE":"3217982","CLASSIFICATION_TYPE":"U","INCLINATION":"53.0546","GP_ID":"189974535","APOAPSIS":"548.341","BSTAR":"0.00004215800000","OBJECT_TYPE":"PAYLOAD"},{"LAUNCH_DATE":"2020-08-07","PERIOD":"95.592","SEMIMAJOR_AXIS":"6925.361","COUNTRY_CODE":"US","SITE":"AFETR","EPHEMERIS_TYPE":"0","PERIAPSIS":"546.191","MEAN_MOTION_DDOT":"0.0000000000000","OBJECT_ID":"2020-055K","REF_FRAME":"TEME","ARG_OF_PERICENTER":"78.7294","MEAN_MOTION":"15.06395929","TLE_LINE1":"1 46036U 20055K   21321.31568213  .00001987  00000-0  15228-3 0  9995","ELEMENT_SET_NO":"999","ECCENTRICITY":"0.00014950","MEAN_ELEMENT_THEORY":"SGP4","MEAN_MOTION_DOT":"0.00001987","REV_AT_EPOCH":"7175","EPOCH":"2021-11-17T07:34:34.936032","MEAN_ANOMALY":"281.3863","CENTER_NAME":"EARTH","OBJECT_NAME":"STARLINK-1560","RA_OF_ASC_NODE":"349.7689","TLE_LINE2":"2 46036  53.0545 349.7689 0001495  78.7294 281.3863 15.06395929 71755","RCS_SIZE":"LARGE","FILE":"3217692","DECAY_DATE":null,"NORAD_CAT_ID":"46036","TIME_SYSTEM":"UTC","OBJECT_TYPE":"PAYLOAD","CLASSIFICATION_TYPE":"U","INCLINATION":"53.0545","GP_ID":"189944701","BSTAR":"0.00015228000000","APOAPSIS":"548.261"},{"APOAPSIS":"548.447","BSTAR":"0.00014792000000","INCLINATION":"53.0551","GP_ID":"189975534","CLASSIFICATION_TYPE":"U","OBJECT_TYPE":"PAYLOAD","TIME_SYSTEM":"UTC","NORAD_CAT_ID":"46037","DECAY_DATE":null,"FILE":"3217982","RCS_SIZE":"LARGE","TLE_LINE2":"2 46037  53.0551 348.6048 0001785  67.1769 292.9409 15.06400938 71785","RA_OF_ASC_NODE":"348.6048","OBJECT_NAME":"STARLINK-1565","CENTER_NAME":"EARTH","MEAN_ANOMALY":"292.9409","EPOCH":"2021-11-17T13:51:26.045856","REV_AT_EPOCH":"7178","MEAN_MOTION_DOT":"0.00001922","MEAN_ELEMENT_THEORY":"SGP4","ECCENTRICITY":"0.00017850","TLE_LINE1":"1 46037U 20055L   21321.57738479  .00001922  00000-0  14792-3 0  9991","ELEMENT_SET_NO":"999","MEAN_MOTION":"15.06400938","ARG_OF_PERICENTER":"67.1769","REF_FRAME":"TEME","OBJECT_ID":"2020-055L","MEAN_MOTION_DDOT":"0.0000000000000","PERIAPSIS":"545.975","EPHEMERIS_TYPE":"0","COUNTRY_CODE":"US","SITE":"AFETR","SEMIMAJOR_AXIS":"6925.346","LAUNCH_DATE":"2020-08-07","PERIOD":"95.592"},{"MEAN_ANOMALY":"293.4329","CENTER_NAME":"EARTH","EPOCH":"2021-11-17T07:50:30.947712","MEAN_MOTION_DOT":"0.00000093","REV_AT_EPOCH":"7174","MEAN_ELEMENT_THEORY":"SGP4","ELEMENT_SET_NO":"999","TLE_LINE1":"1 46038U 20055M   21321.32674708  .00000093  00000-0  25140-4 0  9997","ECCENTRICITY":"0.00017470","MEAN_MOTION":"15.06389406","ARG_OF_PERICENTER":"66.6844","REF_FRAME":"TEME","OBJECT_ID":"2020-055M","PERIAPSIS":"546.036","MEAN_MOTION_DDOT":"0.0000000000000","EPHEMERIS_TYPE":"0","SEMIMAJOR_AXIS":"6925.381","LAUNCH_DATE":"2020-08-07","PERIOD":"95.593","SITE":"AFETR","COUNTRY_CODE":"US","BSTAR":"0.00002514000000","APOAPSIS":"548.456","INCLINATION":"53.0562","GP_ID":"189945203","CLASSIFICATION_TYPE":"U","OBJECT_TYPE":"PAYLOAD","NORAD_CAT_ID":"46038","TIME_SYSTEM":"UTC","DECAY_DATE":null,"FILE":"3217692","TLE_LINE2":"2 46038  53.0562 349.7314 0001747  66.6844 293.4329 15.06389406 71741","RCS_SIZE":"LARGE","RA_OF_ASC_NODE":"349.7314","OBJECT_NAME":"STARLINK-1567"},{"ARG_OF_PERICENTER":"66.9102","MEAN_MOTION":"15.06398751","ECCENTRICITY":"0.00014570","ELEMENT_SET_NO":"999","TLE_LINE1":"1 46039U 20055N   21321.26777058  .00000024  00000-0  20506-4 0  9998","MEAN_ELEMENT_THEORY":"SGP4","REV_AT_EPOCH":"7173","MEAN_MOTION_DOT":"0.00000024","EPOCH":"2021-11-17T06:25:35.378112","CENTER_NAME":"EARTH","MEAN_ANOMALY":"293.2040","COUNTRY_CODE":"US","SITE":"AFETR","LAUNCH_DATE":"2020-08-07","SEMIMAJOR_AXIS":"6925.352","PERIOD":"95.592","EPHEMERIS_TYPE":"0","MEAN_MOTION_DDOT":"0.0000000000000","PERIAPSIS":"546.208","OBJECT_ID":"2020-055N","REF_FRAME":"TEME","OBJECT_TYPE":"PAYLOAD","CLASSIFICATION_TYPE":"U","GP_ID":"189945454","INCLINATION":"53.0556","APOAPSIS":"548.226","BSTAR":"0.00002050600000","RA_OF_ASC_NODE":"349.9952","OBJECT_NAME":"STARLINK-1569","RCS_SIZE":"LARGE","TLE_LINE2":"2 46039  53.0556 349.9952 0001457  66.9102 293.2040 15.06398751 71733","FILE":"3217692","DECAY_DATE":null,"TIME_SYSTEM":"UTC","NORAD_CAT_ID":"46039"},{"FILE":"3217982","RA_OF_ASC_NODE":"348.6725","OBJECT_NAME":"STARLINK-1576","TLE_LINE2":"2 46040  53.0562 348.6725 0001368  66.6600 293.4533 15.06401819 71747","RCS_SIZE":"LARGE","NORAD_CAT_ID":"46040","TIME_SYSTEM":"UTC","DECAY_DATE":null,"OBJECT_TYPE":"PAYLOAD","BSTAR":"-0.00000317210000","APOAPSIS":"548.155","CLASSIFICATION_TYPE":"U","GP_ID":"189974285","INCLINATION":"53.0562","SEMIMAJOR_AXIS":"6925.343","LAUNCH_DATE":"2020-08-07","PERIOD":"95.592","SITE":"AFETR","COUNTRY_CODE":"US","OBJECT_ID":"2020-055P","REF_FRAME":"TEME","EPHEMERIS_TYPE":"0","PERIAPSIS":"546.261","MEAN_MOTION_DDOT":"0.0000000000000","TLE_LINE1":"1 46040U 20055P   21321.56264084 -.00000329  00000-0 -31721-5 0  9995","ELEMENT_SET_NO":"999","ECCENTRICITY":"0.00013680","MEAN_ELEMENT_THEORY":"SGP4","ARG_OF_PERICENTER":"66.6600","MEAN_MOTION":"15.06401819","MEAN_ANOMALY":"293.4533","CENTER_NAME":"EARTH","REV_AT_EPOCH":"7174","MEAN_MOTION_DOT":"-0.00000329","EPOCH":"2021-11-17T13:30:12.168576"},{"MEAN_MOTION_DOT":"-0.00000107","REV_AT_EPOCH":"7175","EPOCH":"2021-11-17T13:34:09.273504","CENTER_NAME":"EARTH","MEAN_ANOMALY":"289.8252","ARG_OF_PERICENTER":"70.2897","MEAN_MOTION":"15.06393930","ECCENTRICITY":"0.00014810","ELEMENT_SET_NO":"999","TLE_LINE1":"1 46041U 20055Q   21321.56538511 -.00000107  00000-0  11719-4 0  9992","MEAN_ELEMENT_THEORY":"SGP4","EPHEMERIS_TYPE":"0","MEAN_MOTION_DDOT":"0.0000000000000","PERIAPSIS":"546.207","OBJECT_ID":"2020-055Q","REF_FRAME":"TEME","SITE":"AFETR","COUNTRY_CODE":"US","LAUNCH_DATE":"2020-08-07","PERIOD":"95.593","SEMIMAJOR_AXIS":"6925.367","CLASSIFICATION_TYPE":"U","INCLINATION":"53.0563","GP_ID":"189975034","APOAPSIS":"548.258","BSTAR":"0.00001171900000","OBJECT_TYPE":"PAYLOAD","DECAY_DATE":null,"TIME_SYSTEM":"UTC","NORAD_CAT_ID":"46041","RA_OF_ASC_NODE":"348.6601","OBJECT_NAME":"STARLINK-1580","RCS_SIZE":"LARGE","TLE_LINE2":"2 46041  53.0563 348.6601 0001481  70.2897 289.8252 15.06393930 71759","FILE":"3217982"},{"DECAY_DATE":null,"NORAD_CAT_ID":"46042","TIME_SYSTEM":"UTC","TLE_LINE2":"2 46042  53.0562 347.5439 0001528  66.8478 293.2672 15.06395698 71785","RCS_SIZE":"LARGE","RA_OF_ASC_NODE":"347.5439","OBJECT_NAME":"STARLINK-1581","FILE":"3217982","INCLINATION":"53.0562","GP_ID":"189975287","CLASSIFICATION_TYPE":"U","BSTAR":"0.00000020106000","APOAPSIS":"548.285","OBJECT_TYPE":"PAYLOAD","PERIAPSIS":"546.169","MEAN_MOTION_DDOT":"0.0000000000000","EPHEMERIS_TYPE":"0","REF_FRAME":"TEME","OBJECT_ID":"2020-055R","PERIOD":"95.592","LAUNCH_DATE":"2020-08-07","SEMIMAJOR_AXIS":"6925.362","SITE":"AFETR","COUNTRY_CODE":"US","EPOCH":"2021-11-17T19:31:07.786848","REV_AT_EPOCH":"7178","MEAN_MOTION_DOT":"-0.00000279","MEAN_ANOMALY":"293.2672","CENTER_NAME":"EARTH","MEAN_MOTION":"15.06395698","ARG_OF_PERICENTER":"66.8478","MEAN_ELEMENT_THEORY":"SGP4","ELEMENT_SET_NO":"999","TLE_LINE1":"1 46042U 20055R   21321.81328457 -.00000279  00000-0  20106-6 0  9999","ECCENTRICITY":"0.00015280"}];
